     2.11           N: GPS NAV DATA                         RINEX VERSION / TYPE
teqc  2019Feb25                         20221121 12:25:39UTCPGM / RUN BY / DATE
OSX ker:10.11.6|Core i5|gcc 4.3 -m64|OSX ker:10.10+|=+      COMMENT
    4.6566D-09  1.4901D-08 -5.9605D-08 -5.9605D-08          ION ALPHA
    7.9872D+04  6.5536D+04 -6.5536D+04 -3.9322D+05          ION BETA
    9.313225746155D-10 1.776356839400D-15   405504     1542 DELTA-UTC: A0,A1,T,W
                                                            END OF HEADER
19 09  7 27 23 59 44.0 1.744460314512D-05-1.477928890381D-12 0.000000000000D+00
    3.000000000000D+01-1.478125000000D+01 4.755555230821D-09 2.840057778480D+00
   -6.761401891708D-07 5.777919664979D-03 9.950250387192D-06 5.153635349274D+03
    1.727840000000D+05-1.285225152969D-07-2.496819752233D+00 1.396983861923D-07
    9.576227456083D-01 1.861562500000D+02-3.119676987983D-01-7.917829809393D-09
   -1.803646557690D-10 1.000000000000D+00 1.542000000000D+03 0.000000000000D+00
    2.000000000000D+00 0.000000000000D+00-1.443549990654D-08 3.000000000000D+01
    1.656180000000D+05 4.000000000000D+00
